[{"OBJECT_NAME":"HORS 2","OBJECT_ID":"2023-091AG","EPOCH":"2026-03-09T22:11:34.810944","MEAN_MOTION":15.2928008,"ECCENTRICITY":0.00098173,"INCLINATION":97.5195,"RA_OF_ASC_NODE":134.7443,"ARG_OF_PERICENTER":79.3164,"MEAN_ANOMALY":280.9181,"EPHEMERIS_TYPE":0,"CLASSIFICATION_TYPE":"U","NORAD_CAT_ID":57196,"ELEMENT_SET_NO":999,"REV_AT_EPOCH":14934,"BSTAR":0.00059338338,"MEAN_MOTION_DOT":0.00016821,"MEAN_MOTION_DDOT":0},{"OBJECT_NAME":"STARLINK-31071","OBJECT_ID":"2023-200P","EPOCH":"2026-03-09T06:04:46.746048","MEAN_MOTION":15.27562352,"ECCENTRICITY":4.28e-5,"INCLINATION":43.0003,"RA_OF_ASC_NODE":11.1431,"ARG_OF_PERICENTER":287.779,"MEAN_ANOMALY":72.3015,"EPHEMERIS_TYPE":0,"CLASSIFICATION_TYPE":"U","NORAD_CAT_ID":58602,"ELEMENT_SET_NO":999,"REV_AT_EPOCH":12542,"BSTAR":-5.1839648e-5,"MEAN_MOTION_DOT":-1.687e-5,"MEAN_MOTION_DDOT":0}]
